SL-3 R/B                
1 13154U 82039B   25317.13946198  .00007020  00000+0  43392-3 0  9997
2 13154  81.1797 350.1340 0032133 349.5633  10.4920 15.09287092364057
SL-3 R/B                
1 13403U 82079B   25317.12250426  .00013093  00000+0  54836-3 0  9991
2 13403  81.1470 330.5649 0025279 196.5998 163.4409 15.23133980359948
SL-14 R/B               
1 13553U 82092B   25316.33283921  .00001417  00000+0  15704-3 0  9998
2 13553  82.5681 251.1462 0019754 335.0480 140.5935 14.86505259311499
SL-3 R/B                
1 13819U 83010B   25317.00446919  .00025296  00000+0  58061-3 0  9991
2 13819  81.1033 144.8850 0018235  91.8918 268.4413 15.42393765339935
SL-3 R/B                
1 14208U 83075B   25317.07507843  .00021331  00000+0  61928-3 0  9998
2 14208  97.6108 312.5820 0021173 288.2979  71.5960 15.35299366312247
COSMOS 1536             
1 14699U 84013A   25317.16087294  .00016734  00000+0  72837-3 0  9990
2 14699  82.5468 223.4832 0014523 340.1405  19.9263 15.22024924254888
SL-14 R/B               
1 14820U 84027B   25317.12659302  .00001045  00000+0  11703-3 0  9996
2 14820  82.5428 354.3282 0018050   4.7048 355.4334 14.85830035230324
SL-8 R/B                
1 15483U 85006B   25316.75137657  .00000534  00000+0  18595-3 0  9990
2 15483  74.0433 116.3064 0017600  58.1986 313.1956 14.37693162137221
SL-12 R/B(2)            
1 15772U 85042D   25317.20150162  .00000180  00000+0  10237-3 0  9990
2 15772  71.1084 333.8248 0037274 304.7398 124.4015 14.21937665 97831
SL-14 R/B               
1 15945U 85069B   25316.94467584  .00001188  00000+0  13202-3 0  9994
2 15945  82.5247 134.7152 0017891 215.5772 144.4253 14.86272018155498
SL-16 R/B               
1 16182U 85097B   25317.19360390  .00000033  00000+0  40448-4 0  9995
2 16182  71.0045  25.8058 0005282  66.8727   0.3696 14.16576158 70733
SL-14 R/B               
1 16496U 86006B   25317.15191671  .00001441  00000+0  15161-3 0  9991
2 16496  82.5289   9.3898 0075428 299.6019  59.7696 14.86612411131899
