CCSDS_OMM_VERS = 2.0
CREATION_DATE  = 
ORIGINATOR     = 

OBJECT_NAME    = SL-3 R/B
OBJECT_ID      = 1982-039B
CENTER_NAME    = EARTH
REF_FRAME      = TEME
TIME_SYSTEM    = UTC
MEAN_ELEMENT_THEORY = SGP/SGP4

EPOCH          = 2025-11-13T03:20:49.515072
MEAN_MOTION    = 15.09287092
ECCENTRICITY   = .0032133
INCLINATION    = 81.1797
RA_OF_ASC_NODE = 350.1340
ARG_OF_PERICENTER = 349.5633
MEAN_ANOMALY   = 10.4920

EPHEMERIS_TYPE = 0
CLASSIFICATION_TYPE = U
NORAD_CAT_ID   = 13154
ELEMENT_SET_NO = 999
REV_AT_EPOCH   = 36405
BSTAR          = .43392E-3
MEAN_MOTION_DOT = .702E-4
MEAN_MOTION_DDOT = 0

CCSDS_OMM_VERS = 2.0
CREATION_DATE  = 
ORIGINATOR     = 

OBJECT_NAME    = SL-3 R/B
OBJECT_ID      = 1982-079B
CENTER_NAME    = EARTH
REF_FRAME      = TEME
TIME_SYSTEM    = UTC
MEAN_ELEMENT_THEORY = SGP/SGP4

EPOCH          = 2025-11-13T02:56:24.368064
MEAN_MOTION    = 15.23133980
ECCENTRICITY   = .0025279
INCLINATION    = 81.1470
RA_OF_ASC_NODE = 330.5649
ARG_OF_PERICENTER = 196.5998
MEAN_ANOMALY   = 163.4409

EPHEMERIS_TYPE = 0
CLASSIFICATION_TYPE = U
NORAD_CAT_ID   = 13403
ELEMENT_SET_NO = 999
REV_AT_EPOCH   = 35994
BSTAR          = .54836E-3
MEAN_MOTION_DOT = .13093E-3
MEAN_MOTION_DDOT = 0

CCSDS_OMM_VERS = 2.0
CREATION_DATE  = 
ORIGINATOR     = 

OBJECT_NAME    = SL-14 R/B
OBJECT_ID      = 1982-092B
CENTER_NAME    = EARTH
REF_FRAME      = TEME
TIME_SYSTEM    = UTC
MEAN_ELEMENT_THEORY = SGP/SGP4

EPOCH          = 2025-11-12T07:59:17.307744
MEAN_MOTION    = 14.86505259
ECCENTRICITY   = .00197542
INCLINATION    = 82.5681
RA_OF_ASC_NODE = 251.1462
ARG_OF_PERICENTER = 335.0480
MEAN_ANOMALY   = 140.5935

EPHEMERIS_TYPE = 0
CLASSIFICATION_TYPE = U
NORAD_CAT_ID   = 13553
ELEMENT_SET_NO = 999
REV_AT_EPOCH   = 31149
BSTAR          = .15704477E-3
MEAN_MOTION_DOT = .1417E-4
MEAN_MOTION_DDOT = 0

CCSDS_OMM_VERS = 2.0
CREATION_DATE  = 
ORIGINATOR     = 

OBJECT_NAME    = SL-3 R/B
OBJECT_ID      = 1983-010B
CENTER_NAME    = EARTH
REF_FRAME      = TEME
TIME_SYSTEM    = UTC
MEAN_ELEMENT_THEORY = SGP/SGP4

EPOCH          = 2025-11-13T00:06:26.138016
MEAN_MOTION    = 15.42393765
ECCENTRICITY   = .0018235
INCLINATION    = 81.1033
RA_OF_ASC_NODE = 144.8850
ARG_OF_PERICENTER = 91.8918
MEAN_ANOMALY   = 268.4413

EPHEMERIS_TYPE = 0
CLASSIFICATION_TYPE = U
NORAD_CAT_ID   = 13819
ELEMENT_SET_NO = 999
REV_AT_EPOCH   = 33993
BSTAR          = .58061E-3
MEAN_MOTION_DOT = .25296E-3
MEAN_MOTION_DDOT = 0

CCSDS_OMM_VERS = 2.0
CREATION_DATE  = 
ORIGINATOR     = 

OBJECT_NAME    = SL-3 R/B
OBJECT_ID      = 1983-075B
CENTER_NAME    = EARTH
REF_FRAME      = TEME
TIME_SYSTEM    = UTC
MEAN_ELEMENT_THEORY = SGP/SGP4

EPOCH          = 2025-11-13T01:48:06.776352
MEAN_MOTION    = 15.35299366
ECCENTRICITY   = .0021173
INCLINATION    = 97.6108
RA_OF_ASC_NODE = 312.5820
ARG_OF_PERICENTER = 288.2979
MEAN_ANOMALY   = 71.5960

EPHEMERIS_TYPE = 0
CLASSIFICATION_TYPE = U
NORAD_CAT_ID   = 14208
ELEMENT_SET_NO = 999
REV_AT_EPOCH   = 31224
BSTAR          = .61928E-3
MEAN_MOTION_DOT = .21331E-3
MEAN_MOTION_DDOT = 0

CCSDS_OMM_VERS = 2.0
CREATION_DATE  = 
ORIGINATOR     = 

OBJECT_NAME    = COSMOS 1536
OBJECT_ID      = 1984-013A
CENTER_NAME    = EARTH
REF_FRAME      = TEME
TIME_SYSTEM    = UTC
MEAN_ELEMENT_THEORY = SGP/SGP4

EPOCH          = 2025-11-13T03:51:39.422016
MEAN_MOTION    = 15.22024924
ECCENTRICITY   = .0014523
INCLINATION    = 82.5468
RA_OF_ASC_NODE = 223.4832
ARG_OF_PERICENTER = 340.1405
MEAN_ANOMALY   = 19.9263

EPHEMERIS_TYPE = 0
CLASSIFICATION_TYPE = U
NORAD_CAT_ID   = 14699
ELEMENT_SET_NO = 999
REV_AT_EPOCH   = 25488
BSTAR          = .72837E-3
MEAN_MOTION_DOT = .16734E-3
MEAN_MOTION_DDOT = 0

CCSDS_OMM_VERS = 2.0
CREATION_DATE  = 
ORIGINATOR     = 

OBJECT_NAME    = SL-14 R/B
OBJECT_ID      = 1984-027B
CENTER_NAME    = EARTH
REF_FRAME      = TEME
TIME_SYSTEM    = UTC
MEAN_ELEMENT_THEORY = SGP/SGP4

EPOCH          = 2025-11-13T03:02:17.636928
MEAN_MOTION    = 14.85830035
ECCENTRICITY   = .001805
INCLINATION    = 82.5428
RA_OF_ASC_NODE = 354.3282
ARG_OF_PERICENTER = 4.7048
MEAN_ANOMALY   = 355.4334

EPHEMERIS_TYPE = 0
CLASSIFICATION_TYPE = U
NORAD_CAT_ID   = 14820
ELEMENT_SET_NO = 999
REV_AT_EPOCH   = 23032
BSTAR          = .11703E-3
MEAN_MOTION_DOT = .1045E-4
MEAN_MOTION_DDOT = 0

CCSDS_OMM_VERS = 2.0
CREATION_DATE  = 
ORIGINATOR     = 

OBJECT_NAME    = SL-8 R/B
OBJECT_ID      = 1985-006B
CENTER_NAME    = EARTH
REF_FRAME      = TEME
TIME_SYSTEM    = UTC
MEAN_ELEMENT_THEORY = SGP/SGP4

EPOCH          = 2025-11-12T18:01:58.935648
MEAN_MOTION    = 14.37693162
ECCENTRICITY   = .00176003
INCLINATION    = 74.0433
RA_OF_ASC_NODE = 116.3064
ARG_OF_PERICENTER = 58.1986
MEAN_ANOMALY   = 313.1956

EPHEMERIS_TYPE = 0
CLASSIFICATION_TYPE = U
NORAD_CAT_ID   = 15483
ELEMENT_SET_NO = 999
REV_AT_EPOCH   = 13722
BSTAR          = .18595238E-3
MEAN_MOTION_DOT = .534E-5
MEAN_MOTION_DDOT = 0

CCSDS_OMM_VERS = 2.0
CREATION_DATE  = 
ORIGINATOR     = 

OBJECT_NAME    = SL-12 R/B(2)
OBJECT_ID      = 1985-042D
CENTER_NAME    = EARTH
REF_FRAME      = TEME
TIME_SYSTEM    = UTC
MEAN_ELEMENT_THEORY = SGP/SGP4

EPOCH          = 2025-11-13T04:50:09.739968
MEAN_MOTION    = 14.21937665
ECCENTRICITY   = .0037274
INCLINATION    = 71.1084
RA_OF_ASC_NODE = 333.8248
ARG_OF_PERICENTER = 304.7398
MEAN_ANOMALY   = 124.4015

EPHEMERIS_TYPE = 0
CLASSIFICATION_TYPE = U
NORAD_CAT_ID   = 15772
ELEMENT_SET_NO = 999
REV_AT_EPOCH   = 9783
BSTAR          = .10237E-3
MEAN_MOTION_DOT = .18E-5
MEAN_MOTION_DDOT = 0

CCSDS_OMM_VERS = 2.0
CREATION_DATE  = 
ORIGINATOR     = 

OBJECT_NAME    = SL-14 R/B
OBJECT_ID      = 1985-069B
CENTER_NAME    = EARTH
REF_FRAME      = TEME
TIME_SYSTEM    = UTC
MEAN_ELEMENT_THEORY = SGP/SGP4

EPOCH          = 2025-11-12T22:40:19.992576
MEAN_MOTION    = 14.86272018
ECCENTRICITY   = .0017891
INCLINATION    = 82.5247
RA_OF_ASC_NODE = 134.7152
ARG_OF_PERICENTER = 215.5772
MEAN_ANOMALY   = 144.4253

EPHEMERIS_TYPE = 0
CLASSIFICATION_TYPE = U
NORAD_CAT_ID   = 15945
ELEMENT_SET_NO = 999
REV_AT_EPOCH   = 15549
BSTAR          = .13202E-3
MEAN_MOTION_DOT = .1188E-4
MEAN_MOTION_DDOT = 0

CCSDS_OMM_VERS = 2.0
CREATION_DATE  = 
ORIGINATOR     = 

OBJECT_NAME    = SL-16 R/B
OBJECT_ID      = 1985-097B
CENTER_NAME    = EARTH
REF_FRAME      = TEME
TIME_SYSTEM    = UTC
MEAN_ELEMENT_THEORY = SGP/SGP4

EPOCH          = 2025-11-13T04:38:47.376960
MEAN_MOTION    = 14.16576158
ECCENTRICITY   = .0005282
INCLINATION    = 71.0045
RA_OF_ASC_NODE = 25.8058
ARG_OF_PERICENTER = 66.8727
MEAN_ANOMALY   = 0.3696

EPHEMERIS_TYPE = 0
CLASSIFICATION_TYPE = U
NORAD_CAT_ID   = 16182
ELEMENT_SET_NO = 999
REV_AT_EPOCH   = 7073
BSTAR          = .40448E-4
MEAN_MOTION_DOT = .33E-6
MEAN_MOTION_DDOT = 0

CCSDS_OMM_VERS = 2.0
CREATION_DATE  = 
ORIGINATOR     = 

OBJECT_NAME    = SL-14 R/B
OBJECT_ID      = 1986-006B
CENTER_NAME    = EARTH
REF_FRAME      = TEME
TIME_SYSTEM    = UTC
MEAN_ELEMENT_THEORY = SGP/SGP4

EPOCH          = 2025-11-13T03:38:45.603744
MEAN_MOTION    = 14.86612411
ECCENTRICITY   = .0075428
INCLINATION    = 82.5289
RA_OF_ASC_NODE = 9.3898
ARG_OF_PERICENTER = 299.6019
MEAN_ANOMALY   = 59.7696

EPHEMERIS_TYPE = 0
CLASSIFICATION_TYPE = U
NORAD_CAT_ID   = 16496
ELEMENT_SET_NO = 999
REV_AT_EPOCH   = 13189
BSTAR          = .15161E-3
MEAN_MOTION_DOT = .1441E-4
MEAN_MOTION_DDOT = 0

